start=new Date('2023-02-03T00:00:00.000Z').valueOf();
sats=[{"OBJECT_ID":"2020-019G","ARG_OF_PERICENTER":"91.8344","EPOCH":"2023-02-02T11:27:17.579520","SEMIMAJOR_AXIS":"6925.343","TLE_LINE2":"2 45366  53.0515 204.8313 0001327  91.8344 268.2796 15.06401749159235","RA_OF_ASC_NODE":"204.8313","LAUNCH_DATE":"2020-03-18","ELEMENT_SET_NO":"999","PERIOD":"95.592","GP_ID":"224237894","BSTAR":"0.00014476000000","NORAD_CAT_ID":"45366","MEAN_MOTION":"15.06401749","APOAPSIS":"548.127","EPHEMERIS_TYPE":"0","RCS_SIZE":"LARGE","TIME_SYSTEM":"UTC","CENTER_NAME":"EARTH","INCLINATION":"53.0515","FILE":"3768366","SITE":"AFETR","REF_FRAME":"TEME","MEAN_MOTION_DDOT":"0.0000000000000","COUNTRY_CODE":"US","CLASSIFICATION_TYPE":"U","OBJECT_NAME":"STARLINK-1262","TLE_LINE1":"1 45366U 20019G   23033.47728680  .00001875  00000-0  14476-3 0  9995","DECAY_DATE":null,"MEAN_ANOMALY":"268.2796","MEAN_MOTION_DOT":"0.00001875","OBJECT_TYPE":"PAYLOAD","MEAN_ELEMENT_THEORY":"SGP4","ECCENTRICITY":"0.00013270","REV_AT_EPOCH":"15923","PERIAPSIS":"546.289"},{"NORAD_CAT_ID":"45367","APOAPSIS":"547.999","MEAN_MOTION":"15.06396808","EPHEMERIS_TYPE":"0","GP_ID":"224238136","BSTAR":"0.00001963500000","ELEMENT_SET_NO":"999","PERIOD":"95.592","LAUNCH_DATE":"2020-03-18","TLE_LINE2":"2 45367  53.0521 204.7321 0001120  89.7199 270.3919 15.06396808159236","SEMIMAJOR_AXIS":"6925.358","RA_OF_ASC_NODE":"204.7321","ARG_OF_PERICENTER":"89.7199","EPOCH":"2023-02-02T11:59:08.314656","OBJECT_ID":"2020-019H","REV_AT_EPOCH":"15923","ECCENTRICITY":"0.00011200","PERIAPSIS":"546.448","MEAN_ELEMENT_THEORY":"SGP4","MEAN_MOTION_DOT":"0.00000011","OBJECT_TYPE":"PAYLOAD","CLASSIFICATION_TYPE":"U","OBJECT_NAME":"STARLINK-1273","MEAN_ANOMALY":"270.3919","TLE_LINE1":"1 45367U 20019H   23033.49940179  .00000011  00000-0  19635-4 0  9991","DECAY_DATE":null,"REF_FRAME":"TEME","MEAN_MOTION_DDOT":"0.0000000000000","COUNTRY_CODE":"US","FILE":"3768366","SITE":"AFETR","INCLINATION":"53.0521","RCS_SIZE":"LARGE","TIME_SYSTEM":"UTC","CENTER_NAME":"EARTH"},{"LAUNCH_DATE":"2020-03-18","RA_OF_ASC_NODE":"204.8698","SEMIMAJOR_AXIS":"6925.360","TLE_LINE2":"2 45368  53.0523 204.8698 0001326  84.4739 275.6401 15.06396110159237","EPOCH":"2023-02-02T11:16:40.401120","ARG_OF_PERICENTER":"84.4739","OBJECT_ID":"2020-019J","MEAN_MOTION":"15.06396110","APOAPSIS":"548.144","EPHEMERIS_TYPE":"0","NORAD_CAT_ID":"45368","BSTAR":"0.00009004500000","GP_ID":"224238887","ELEMENT_SET_NO":"999","PERIOD":"95.592","REF_FRAME":"TEME","MEAN_MOTION_DDOT":"0.0000000000000","COUNTRY_CODE":"US","SITE":"AFETR","FILE":"3768366","INCLINATION":"53.0523","CENTER_NAME":"EARTH","TIME_SYSTEM":"UTC","RCS_SIZE":"LARGE","REV_AT_EPOCH":"15923","ECCENTRICITY":"0.00013260","PERIAPSIS":"546.307","MEAN_ELEMENT_THEORY":"SGP4","MEAN_MOTION_DOT":"0.00001060","OBJECT_TYPE":"PAYLOAD","OBJECT_NAME":"STARLINK-1276","TLE_LINE1":"1 45368U 20019J   23033.46991205  .00001060  00000-0  90045-4 0  9994","MEAN_ANOMALY":"275.6401","DECAY_DATE":null,"CLASSIFICATION_TYPE":"U"},{"ELEMENT_SET_NO":"999","PERIOD":"95.592","BSTAR":"0.00004188600000","GP_ID":"224260706","MEAN_MOTION":"15.06398316","APOAPSIS":"548.258","EPHEMERIS_TYPE":"0","NORAD_CAT_ID":"45369","OBJECT_ID":"2020-019K","EPOCH":"2023-02-02T11:15:19.018368","ARG_OF_PERICENTER":"83.1653","RA_OF_ASC_NODE":"204.8641","TLE_LINE2":"2 45369  53.0527 204.8641 0001501  83.1653 276.9506 15.06398316159236","SEMIMAJOR_AXIS":"6925.354","LAUNCH_DATE":"2020-03-18","MEAN_ANOMALY":"276.9506","TLE_LINE1":"1 45369U 20019K   23033.46897012  .00000342  00000-0  41886-4 0  9997","DECAY_DATE":null,"OBJECT_NAME":"STARLINK-1277","CLASSIFICATION_TYPE":"U","OBJECT_TYPE":"PAYLOAD","MEAN_MOTION_DOT":"0.00000342","MEAN_ELEMENT_THEORY":"SGP4","PERIAPSIS":"546.179","ECCENTRICITY":"0.00015010","REV_AT_EPOCH":"15923","CENTER_NAME":"EARTH","TIME_SYSTEM":"UTC","RCS_SIZE":"LARGE","INCLINATION":"53.0527","SITE":"AFETR","FILE":"3769072","COUNTRY_CODE":"US","MEAN_MOTION_DDOT":"0.0000000000000","REF_FRAME":"TEME"},{"ELEMENT_SET_NO":"999","PERIOD":"95.592","MEAN_MOTION":"15.06398388","APOAPSIS":"548.162","EPHEMERIS_TYPE":"0","NORAD_CAT_ID":"45370","BSTAR":"0.00006879800000","GP_ID":"224260328","EPOCH":"2023-02-02T20:33:59.159808","ARG_OF_PERICENTER":"86.2038","OBJECT_ID":"2020-019L","LAUNCH_DATE":"2020-03-18","RA_OF_ASC_NODE":"203.1304","TLE_LINE2":"2 45370  53.0513 203.1304 0001362  86.2038 273.9107 15.06398388159263","SEMIMAJOR_AXIS":"6925.353","OBJECT_TYPE":"PAYLOAD","MEAN_MOTION_DOT":"0.00000743","DECAY_DATE":null,"TLE_LINE1":"1 45370U 20019L   23033.85693472  .00000743  00000-0  68798-4 0  9992","MEAN_ANOMALY":"273.9107","OBJECT_NAME":"STARLINK-1281","CLASSIFICATION_TYPE":"U","PERIAPSIS":"546.275","ECCENTRICITY":"0.00013620","REV_AT_EPOCH":"15926","MEAN_ELEMENT_THEORY":"SGP4","INCLINATION":"53.0513","CENTER_NAME":"EARTH","TIME_SYSTEM":"UTC","RCS_SIZE":"LARGE","COUNTRY_CODE":"US","REF_FRAME":"TEME","MEAN_MOTION_DDOT":"0.0000000000000","SITE":"AFETR","FILE":"3769074"},{"EPHEMERIS_TYPE":"0","APOAPSIS":"548.157","MEAN_MOTION":"15.06386708","NORAD_CAT_ID":"45371","BSTAR":"-0.00004081600000","GP_ID":"224260319","ELEMENT_SET_NO":"999","PERIOD":"95.593","LAUNCH_DATE":"2020-03-18","RA_OF_ASC_NODE":"202.9883","TLE_LINE2":"2 45371  53.0519 202.9883 0001304  78.4187 281.6948 15.06386708159298","SEMIMAJOR_AXIS":"6925.389","EPOCH":"2023-02-02T21:15:06.844032","ARG_OF_PERICENTER":"78.4187","OBJECT_ID":"2020-019M","REV_AT_EPOCH":"15929","ECCENTRICITY":"0.00013040","PERIAPSIS":"546.351","MEAN_ELEMENT_THEORY":"SGP4","MEAN_MOTION_DOT":"-0.00000889","OBJECT_TYPE":"PAYLOAD","OBJECT_NAME":"STARLINK-1287","DECAY_DATE":null,"TLE_LINE1":"1 45371U 20019M   23033.88549588 -.00000889  00000-0 -40816-4 0  9998","MEAN_ANOMALY":"281.6948","CLASSIFICATION_TYPE":"U","MEAN_MOTION_DDOT":"0.0000000000000","REF_FRAME":"TEME","COUNTRY_CODE":"US","SITE":"AFETR","FILE":"3769073","INCLINATION":"53.0519","TIME_SYSTEM":"UTC","CENTER_NAME":"EARTH","RCS_SIZE":"LARGE"},{"TLE_LINE1":"1 45372U 20019N   23033.83482176  .00000253  00000-0  35840-4 0  9997","MEAN_ANOMALY":"274.7445","DECAY_DATE":null,"OBJECT_NAME":"STARLINK-1288","CLASSIFICATION_TYPE":"U","OBJECT_TYPE":"PAYLOAD","MEAN_MOTION_DOT":"0.00000253","MEAN_ELEMENT_THEORY":"SGP4","PERIAPSIS":"546.487","REV_AT_EPOCH":"15928","ECCENTRICITY":"0.00010660","TIME_SYSTEM":"UTC","CENTER_NAME":"EARTH","RCS_SIZE":"LARGE","INCLINATION":"53.0541","SITE":"AFETR","FILE":"3769073","COUNTRY_CODE":"US","REF_FRAME":"TEME","MEAN_MOTION_DDOT":"0.0000000000000","ELEMENT_SET_NO":"999","PERIOD":"95.592","BSTAR":"0.00003584000000","GP_ID":"224260318","EPHEMERIS_TYPE":"0","APOAPSIS":"547.963","MEAN_MOTION":"15.06396343","NORAD_CAT_ID":"45372","OBJECT_ID":"2020-019N","EPOCH":"2023-02-02T20:02:08.600064","ARG_OF_PERICENTER":"85.3665","RA_OF_ASC_NODE":"203.2184","TLE_LINE2":"2 45372  53.0541 203.2184 0001066  85.3665 274.7445 15.06396343159285","SEMIMAJOR_AXIS":"6925.360","LAUNCH_DATE":"2020-03-18"},{"ELEMENT_SET_NO":"999","PERIOD":"95.592","MEAN_MOTION":"15.06397884","APOAPSIS":"547.990","EPHEMERIS_TYPE":"0","NORAD_CAT_ID":"45373","BSTAR":"0.00005316100000","GP_ID":"224257116","EPOCH":"2023-02-02T14:48:58.808448","ARG_OF_PERICENTER":"84.1196","OBJECT_ID":"2020-019P","LAUNCH_DATE":"2020-03-18","RA_OF_ASC_NODE":"204.2007","SEMIMAJOR_AXIS":"6925.355","TLE_LINE2":"2 45373  53.0541 204.2007 0001112  84.1196 275.9920 15.06397884159258","MEAN_MOTION_DOT":"0.00000511","OBJECT_TYPE":"PAYLOAD","OBJECT_NAME":"STARLINK-1295","TLE_LINE1":"1 45373U 20019P   23033.61734732  .00000511  00000-0  53161-4 0  9995","DECAY_DATE":null,"MEAN_ANOMALY":"275.9920","CLASSIFICATION_TYPE":"U","ECCENTRICITY":"0.00011120","REV_AT_EPOCH":"15925","PERIAPSIS":"546.450","MEAN_ELEMENT_THEORY":"SGP4","INCLINATION":"53.0541","TIME_SYSTEM":"UTC","CENTER_NAME":"EARTH","RCS_SIZE":"LARGE","MEAN_MOTION_DDOT":"0.0000000000000","REF_FRAME":"TEME","COUNTRY_CODE":"US","SITE":"AFETR","FILE":"3768924"},{"PERIOD":"95.592","ELEMENT_SET_NO":"999","GP_ID":"224260409","BSTAR":"0.00001081500000","NORAD_CAT_ID":"45374","APOAPSIS":"548.263","EPHEMERIS_TYPE":"0","MEAN_MOTION":"15.06399843","OBJECT_ID":"2020-019Q","ARG_OF_PERICENTER":"95.3580","EPOCH":"2023-02-02T21:05:50.202528","TLE_LINE2":"2 45374  53.0519 203.0229 0001514  95.3580 264.7582 15.06399843159295","SEMIMAJOR_AXIS":"6925.349","RA_OF_ASC_NODE":"203.0229","LAUNCH_DATE":"2020-03-18","CLASSIFICATION_TYPE":"U","OBJECT_NAME":"STARLINK-1300","TLE_LINE1":"1 45374U 20019Q   23033.87905327 -.00000120  00000-0  10815-4 0  9990","MEAN_ANOMALY":"264.7582","DECAY_DATE":null,"MEAN_MOTION_DOT":"-0.00000120","OBJECT_TYPE":"PAYLOAD","MEAN_ELEMENT_THEORY":"SGP4","ECCENTRICITY":"0.00015140","REV_AT_EPOCH":"15929","PERIAPSIS":"546.166","RCS_SIZE":"LARGE","CENTER_NAME":"EARTH","TIME_SYSTEM":"UTC","INCLINATION":"53.0519","FILE":"3769086","SITE":"AFETR","REF_FRAME":"TEME","MEAN_MOTION_DDOT":"0.0000000000000","COUNTRY_CODE":"US"},{"RCS_SIZE":"LARGE","TIME_SYSTEM":"UTC","CENTER_NAME":"EARTH","INCLINATION":"53.0537","FILE":"3769081","SITE":"AFETR","MEAN_MOTION_DDOT":"0.0000000000000","REF_FRAME":"TEME","COUNTRY_CODE":"US","CLASSIFICATION_TYPE":"U","OBJECT_NAME":"STARLINK-1302","MEAN_ANOMALY":"272.1463","TLE_LINE1":"1 45375U 20019R   23033.49574075  .00000923  00000-0  80864-4 0  9992","DECAY_DATE":null,"MEAN_MOTION_DOT":"0.00000923","OBJECT_TYPE":"PAYLOAD","MEAN_ELEMENT_THEORY":"SGP4","REV_AT_EPOCH":"15923","ECCENTRICITY":"0.00013690","PERIAPSIS":"546.286","OBJECT_ID":"2020-019R","ARG_OF_PERICENTER":"87.9683","EPOCH":"2023-02-02T11:53:52.000800","TLE_LINE2":"2 45375  53.0537 204.7428 0001369  87.9683 272.1463 15.06393292159231","SEMIMAJOR_AXIS":"6925.369","RA_OF_ASC_NODE":"204.7428","LAUNCH_DATE":"2020-03-18","ELEMENT_SET_NO":"999","PERIOD":"95.593","GP_ID":"224260843","BSTAR":"0.00008086400000","NORAD_CAT_ID":"45375","APOAPSIS":"548.182","EPHEMERIS_TYPE":"0","MEAN_MOTION":"15.06393292"}];
